[{"OBJECT_NAME":"STARLINK-32590","OBJECT_ID":"2025-034U","EPOCH":"2026-03-09T19:21:36.262944","MEAN_MOTION":15.30197789,"ECCENTRICITY":8.46e-5,"INCLINATION":53.1578,"RA_OF_ASC_NODE":257.6577,"ARG_OF_PERICENTER":95.626,"MEAN_ANOMALY":264.4837,"EPHEMERIS_TYPE":0,"CLASSIFICATION_TYPE":"U","NORAD_CAT_ID":63047,"ELEMENT_SET_NO":999,"REV_AT_EPOCH":5909,"BSTAR":0.00099071584,"MEAN_MOTION_DOT":0.00029096,"MEAN_MOTION_DDOT":0},{"OBJECT_NAME":"CZ-6A DEB","OBJECT_ID":"2022-151NB","EPOCH":"2026-03-09T18:26:17.609568","MEAN_MOTION":15.22372787,"ECCENTRICITY":0.00267955,"INCLINATION":98.6489,"RA_OF_ASC_NODE":154.0342,"ARG_OF_PERICENTER":180.4296,"MEAN_ANOMALY":179.6918,"EPHEMERIS_TYPE":0,"CLASSIFICATION_TYPE":"U","NORAD_CAT_ID":54601,"ELEMENT_SET_NO":999,"REV_AT_EPOCH":17694,"BSTAR":0.011449911,"MEAN_MOTION_DOT":0.00276508,"MEAN_MOTION_DDOT":0}]
